[{"OBJECT_NAME":"STARLINK-34820","OBJECT_ID":"2025-161AC","EPOCH":"2026-03-09T21:38:10.196160","MEAN_MOTION":15.30200105,"ECCENTRICITY":9.289e-5,"INCLINATION":53.1577,"RA_OF_ASC_NODE":293.1186,"ARG_OF_PERICENTER":62.7884,"MEAN_ANOMALY":297.3211,"EPHEMERIS_TYPE":0,"CLASSIFICATION_TYPE":"U","NORAD_CAT_ID":65041,"ELEMENT_SET_NO":999,"REV_AT_EPOCH":3426,"BSTAR":0.0012359343,"MEAN_MOTION_DOT":0.00036425,"MEAN_MOTION_DDOT":0},{"OBJECT_NAME":"CERISE","OBJECT_ID":"1995-033B","EPOCH":"2026-03-09T23:11:27.589056","MEAN_MOTION":15.32047731,"ECCENTRICITY":0.00057118,"INCLINATION":98.325,"RA_OF_ASC_NODE":273.5192,"ARG_OF_PERICENTER":211.8754,"MEAN_ANOMALY":148.214,"EPHEMERIS_TYPE":0,"CLASSIFICATION_TYPE":"U","NORAD_CAT_ID":23606,"ELEMENT_SET_NO":999,"REV_AT_EPOCH":66468,"BSTAR":0.00062940675,"MEAN_MOTION_DOT":0.00019422,"MEAN_MOTION_DDOT":0}]
